NORAD_CAT_ID,OBJECT_NAME,OBJECT_TYPE,EPOCH,MEAN_MOTION,ECCENTRICITY,INCLINATION,RA_OF_ASC_NODE,ARG_OF_PERICENTER,MEAN_ANOMALY,BSTAR,MEAN_MOTION_DOT,MEAN_MOTION_DDOT,TLE_LINE0,TLE_LINE1,TLE_LINE2,SEMIMAJOR_AXIS,PERIOD,APOGEE,PERIGEE,DECAYED
52333.0,STARLINK-3847,PAYLOAD,2023-04-13 19:40:59,15.0885475,0.000107,53.2147,291.5506,92.2771,267.8344,0.00059863,9.256e-05,0.0,0 STARLINK-3847,1 52333U 22045C   23103.82013573  .00009256  00000-0  59863-3 0  9993,2 52333  53.2147 291.5506 0001070  92.2771 267.8344 15.08854750 55472,6917.835,95.437,540.441,538.96,0.0
52333.0,STARLINK-3847,PAYLOAD,2023-04-14 13:10:14,15.08838095,0.0001068,53.2186,288.2818,95.5214,264.59,0.00024793,3.66e-05,0.0,0 STARLINK-3847,1 52333U 22045C   23104.54877818  .00003660  00000-0  24793-3 0  9990,2 52333  53.2186 288.2818 0001068  95.5214 264.5900 15.08838095 55587,6917.886,95.438,540.49,539.012,0.0
52333.0,STARLINK-3847,PAYLOAD,2023-04-15 11:25:38,15.08837397,9.71e-05,53.2177,284.1189,98.7079,261.4023,0.00018363,2.636e-05,0.0,0 STARLINK-3847,1 52333U 22045C   23105.47614188  .00002636  00000-0  18363-3 0  9990,2 52333  53.2177 284.1189 0000971  98.7079 261.4023 15.08837397 55721,6917.888,95.438,540.425,539.082,0.0
52333.0,STARLINK-3847,PAYLOAD,2023-04-15 20:57:57,15.08841182,0.0001264,53.2152,282.3338,90.8992,269.2145,0.00013771,1.905e-05,0.0,0 STARLINK-3847,1 52333U 22045C   23105.87358167  .00001905  00000-0  13771-3 0  9992,2 52333  53.2152 282.3338 0001264  90.8992 269.2145 15.08841182 55787,6917.877,95.437,540.616,538.867,0.0
52333.0,STARLINK-3847,PAYLOAD,2023-04-16 11:16:25,15.08840352,0.0001236,53.2146,279.6571,92.5913,267.5221,0.00015568,2.191e-05,0.0,0 STARLINK-3847,1 52333U 22045C   23106.46974333  .00002191  00000-0  15568-3 0  9991,2 52333  53.2146 279.6571 0001236  92.5913 267.5221 15.08840352 55873,6917.879,95.438,540.599,538.889,0.0
52333.0,STARLINK-3847,PAYLOAD,2023-04-16 17:37:58,15.08843218,9.06e-05,53.2143,278.4676,95.3326,264.777,0.0002295,3.367e-05,0.0,0 STARLINK-3847,1 52333U 22045C   23106.73470188  .00003367  00000-0  22950-3 0  9999,2 52333  53.2143 278.4676 0000906  95.3326 264.7770 15.08843218 55912,6917.871,95.437,540.362,539.109,0.0
52333.0,STARLINK-3847,PAYLOAD,2023-04-16 20:48:44,15.08850808,0.000109,53.2146,277.8721,96.9273,263.1843,0.00034489,5.207e-05,0.0,0 STARLINK-3847,1 52333U 22045C   23106.86717870  .00005207  00000-0  34489-3 0  9990,2 52333  53.2146 277.8721 0001090  96.9273 263.1843 15.08850808 55931,6917.847,95.437,540.466,538.958,0.0
52333.0,STARLINK-3847,PAYLOAD,2023-04-17 11:07:12,15.08841883,0.0001458,53.215,275.1974,82.5419,277.5739,0.00017849,2.554e-05,0.0,0 STARLINK-3847,1 52333U 22045C   23107.46334429  .00002554  00000-0  17849-3 0  9995,2 52333  53.2150 275.1974 0001458  82.5419 277.5739 15.08841883 56025,6917.875,95.437,540.748,538.731,0.0
52333.0,STARLINK-3847,PAYLOAD,2023-04-17 20:39:31,15.08848307,0.0001243,53.2146,273.4109,94.3117,265.8017,0.00025238,3.732e-05,0.0,0 STARLINK-3847,1 52333U 22045C   23107.86078061  .00003732  00000-0  25238-3 0  9996,2 52333  53.2146 273.4109 0001243  94.3117 265.8017 15.08848307 56082,6917.855,95.437,540.58,538.86,0.0
52333.0,STARLINK-3847,PAYLOAD,2023-04-18 10:57:59,15.08839726,0.0001215,53.214,270.7363,87.5994,272.5137,0.0001021,1.337e-05,0.0,0 STARLINK-3847,1 52333U 22045C   23108.45694420  .00001337  00000-0  10210-3 0  9998,2 52333  53.2140 270.7363 0001215  87.5994 272.5137 15.08839726 56177,6917.881,95.438,540.587,538.906,0.0
52333.0,STARLINK-3847,PAYLOAD,2023-04-18 17:19:32,15.08844683,0.0001172,53.2141,269.546,94.4765,265.6361,0.00019661,2.843e-05,0.0,0 STARLINK-3847,1 52333U 22045C   23108.72190232  .00002843  00000-0  19661-3 0  9992,2 52333  53.2141 269.5460 0001172  94.4765 265.6361 15.08844683 56212,6917.866,95.437,540.542,538.92,0.0
52333.0,STARLINK-3847,PAYLOAD,2023-04-18 20:30:18,15.08849245,0.0001213,53.2155,268.9504,97.9511,262.1618,0.00024859,3.672e-05,0.0,0 STARLINK-3847,1 52333U 22045C   23108.85438063  .00003672  00000-0  24859-3 0  9999,2 52333  53.2155 268.9504 0001213  97.9511 262.1618 15.08849245 56230,6917.852,95.437,540.556,538.878,0.0
52333.0,STARLINK-3847,PAYLOAD,2023-04-19 17:10:19,15.08848079,0.0001813,53.2146,265.0843,87.4918,272.6281,0.00030758,4.612e-05,0.0,0 STARLINK-3847,1 52333U 22045C   23109.71550340  .00004612  00000-0  30758-3 0  9998,2 52333  53.2146 265.0843 0001813  87.4918 272.6281 15.08848079 56365,6917.856,95.437,540.975,538.466,0.0
52333.0,STARLINK-3847,PAYLOAD,2023-04-20 02:42:38,15.08843495,0.0001022,53.2149,263.301,72.872,287.2384,0.0002362,3.474e-05,0.0,0 STARLINK-3847,1 52333U 22045C   23110.11294455  .00003474  00000-0  23620-3 0  9991,2 52333  53.2149 263.3010 0001022  72.8720 287.2384 15.08843495 56426,6917.87,95.437,540.442,539.028,0.0
52333.0,STARLINK-3847,PAYLOAD,2023-04-20 10:39:34,15.08839407,0.0001202,53.2161,261.8171,82.838,277.2748,0.00013333,1.835e-05,0.0,0 STARLINK-3847,1 52333U 22045C   23110.44414646  .00001835  00000-0  13333-3 0  9992,2 52333  53.2161 261.8171 0001202  82.8380 277.2748 15.08839407 56470,6917.882,95.438,540.579,538.916,0.0
52333.0,STARLINK-3847,PAYLOAD,2023-04-20 17:01:06,15.08847659,0.0001556,53.216,260.626,97.3231,262.7938,0.00024301,3.582e-05,0.0,0 STARLINK-3847,1 52333U 22045C   23110.70910289  .00003582  00000-0  24301-3 0  9993,2 52333  53.2160 260.6260 0001556  97.3231 262.7938 15.08847659 56516,6917.857,95.437,540.798,538.646,0.0
52333.0,STARLINK-3847,PAYLOAD,2023-04-21 02:33:25,15.08838964,9.88e-05,53.2151,258.8411,87.535,272.5756,4.2733e-05,3.92e-06,0.0,0 STARLINK-3847,1 52333U 22045C   23111.10654432  .00000392  00000-0  42733-4 0  9999,2 52333  53.2151 258.8411 0000988  87.5350 272.5756 15.08838964 56576,6917.884,95.438,540.432,539.065,0.0
52333.0,STARLINK-3847,PAYLOAD,2023-04-21 16:51:53,15.08837488,0.0001048,53.2156,256.1657,94.8976,265.2136,-2.4612e-05,-6.79e-06,0.0,0 STARLINK-3847,1 52333U 22045C   23111.70270636 -.00000679  00000-0 -24612-4 0  9991,2 52333  53.2156 256.1657 0001048  94.8976 265.2136 15.08837488 56668,6917.888,95.438,540.478,539.028,0.0
52333.0,STARLINK-3847,PAYLOAD,2023-04-22 02:24:12,15.08845891,9.3e-05,53.2154,254.3791,79.3379,280.7717,9.0885e-05,1.159e-05,0.0,0 STARLINK-3847,1 52333U 22045C   23112.10014324  .00001159  00000-0  90885-4 0  9993,2 52333  53.2154 254.3791 0000930  79.3379 280.7717 15.08845891 56720,6917.862,95.437,540.371,539.084,0.0
52333.0,STARLINK-3847,PAYLOAD,2023-04-22 16:42:40,15.08840935,0.0001106,53.2156,251.7044,77.9875,282.1241,4.3125e-05,3.99e-06,0.0,0 STARLINK-3847,1 52333U 22045C   23112.69630656  .00000399  00000-0  43125-4 0  9999,2 52333  53.2156 251.7044 0001106  77.9875 282.1241 15.08840935 56817,6917.878,95.437,540.508,538.977,0.0
52333.0,STARLINK-3847,PAYLOAD,2023-04-23 08:36:32,15.0883055,9.18e-05,53.2162,248.7304,81.4082,278.7014,3.2532e-05,2.3e-06,0.0,0 STARLINK-3847,1 52333U 22045C   23113.35871504  .00000230  00000-0  32532-4 0  9996,2 52333  53.2162 248.7304 0000918  81.4082 278.7014 15.08830550 56911,6917.909,95.438,540.409,539.139,0.0
52333.0,STARLINK-3847,PAYLOAD,2023-04-24 02:05:47,15.08846279,0.0001224,53.2174,245.4599,84.5728,275.5403,0.00017585,2.512e-05,0.0,0 STARLINK-3847,1 52333U 22045C   23114.08734985  .00002512  00000-0  17585-3 0  9993,2 52333  53.2174 245.4599 0001224  84.5728 275.5403 15.08846279 57021,6917.861,95.437,540.573,538.879,0.0
52333.0,STARLINK-3847,PAYLOAD,2023-04-24 08:27:18,15.08866073,0.0001097,53.2173,244.27,80.8282,279.2834,0.00055299,8.53e-05,0.0,0 STARLINK-3847,1 52333U 22045C   23114.35230134  .00008530  00000-0  55299-3 0  9990,2 52333  53.2173 244.2700 0001097  80.8282 279.2834 15.08866073 57060,6917.801,95.436,540.425,538.907,0.0
52333.0,STARLINK-3847,PAYLOAD,2023-04-25 11:28:52,15.08817282,0.0001308,53.2158,239.2134,121.8203,238.2917,-0.00076724,-0.0001247,0.0,0 STARLINK-3847,1 52333U 22045C   23115.47838354 -.00012470  00000-0 -76724-3 0  9998,2 52333  53.2158 239.2134 0001308 121.8203 238.2917 15.08817282 57236,6917.95,95.439,540.72,538.91,0.0
52333.0,STARLINK-3847,PAYLOAD,2023-04-26 11:19:40,15.08824082,0.0001446,53.2202,234.7567,117.7533,242.3606,-0.00010795,-2.005e-05,0.0,0 STARLINK-3847,1 52333U 22045C   23116.47199843 -.00002005  00000-0 -10795-3 0  9991,2 52333  53.2202 234.7567 0001446 117.7533 242.3606 15.08824082 57382,6917.929,95.439,540.794,538.794,0.0
52333.0,STARLINK-3847,PAYLOAD,2023-04-26 17:41:13,15.08828426,0.0002047,53.2133,233.5611,121.2788,238.8404,3.2315e-05,2.26e-06,0.0,0 STARLINK-3847,1 52333U 22045C   23116.73695987  .00000226  00000-0  32315-4 0  9994,2 52333  53.2133 233.5611 0002047 121.2788 238.8404 15.08828426 57429,6917.916,95.438,541.197,538.365,0.0
52333.0,STARLINK-3847,PAYLOAD,2023-04-27 11:10:27,15.08849152,0.000125,53.2164,230.294,121.0365,239.075,0.00070666,0.00010979,0.0,0 STARLINK-3847,1 52333U 22045C   23117.46559908  .00010979  00000-0  70666-3 0  9993,2 52333  53.2164 230.2940 0001250 121.0365 239.0750 15.08849152 57534,6917.852,95.437,540.582,538.853,0.0
52333.0,STARLINK-3847,PAYLOAD,2023-04-27 19:07:22,15.08867257,0.0001096,53.2161,228.8069,115.4968,244.6137,0.00089222,0.00013951,0.0,0 STARLINK-3847,1 52333U 22045C   23117.79679265  .00013951  00000-0  89222-3 0  9999,2 52333  53.2161 228.8069 0001096 115.4968 244.6137 15.08867257 57582,6917.797,95.436,540.42,538.904,0.0
52333.0,STARLINK-3847,PAYLOAD,2023-04-28 06:15:04,15.0885486,0.000136,53.2168,226.7283,118.4215,241.6915,-0.00035511,-5.937e-05,0.0,0 STARLINK-3847,1 52333U 22045C   23118.26047174 -.00005937  00000-0 -35511-3 0  9999,2 52333  53.2168 226.7283 0001360 118.4215 241.6915 15.08854860 57651,6917.835,95.437,540.641,538.759,0.0
52333.0,STARLINK-3847,PAYLOAD,2023-04-28 14:12:00,15.08856432,0.0001095,53.2172,225.2408,112.9537,247.1571,0.00015417,2.168e-05,0.0,0 STARLINK-3847,1 52333U 22045C   23118.59167085  .00002168  00000-0  15417-3 0  9993,2 52333  53.2172 225.2408 0001095 112.9537 247.1571 15.08856432 57702,6917.83,95.437,540.453,538.938,0.0
